QIANFAN-9               
1 60387U 24140J   25229.81027874  .00000110  00000+0  15111-3 0  9995
2 60387  88.9838 311.4273 0017149 168.7826 191.3710 13.50960396 51539
QIANFAN-10              
1 60388U 24140K   25229.81439017  .00000099  00000+0  13399-3 0  9994
2 60388  88.9847 310.7636 0016304 147.3195 212.8968 13.50962463 51923
QIANFAN-11              
1 60389U 24140L   25229.85137446  .00000112  00000+0  15394-3 0  9993
2 60389  88.9774 311.4334 0015201 167.4935 192.6596 13.50962794 51420
QIANFAN-12              
1 60390U 24140M   25229.79782466  .00000099  00000+0  13503-3 0  9990
2 60390  88.9817 311.4312 0013741 174.6751 185.4548 13.50962618 51498
QIANFAN-13              
1 60391U 24140N   25229.84310645  .00000098  00000+0  13279-3 0  9992
2 60391  88.9829 311.5120 0013479 176.9743 183.1492 13.50962522 51479
QIANFAN-14              
1 60392U 24140P   25229.79367380  .00000097  00000+0  13198-3 0  9994
2 60392  88.9808 311.4398 0017126 178.9761 181.1428 13.50963641 51478
QIANFAN-15              
1 60393U 24140Q   25229.80206329  .00000054  00000+0  65228-4 0  9997
2 60393  88.9832 311.3678 0013434 163.8293 196.3289 13.50967120 51555
QIANFAN-16              
1 60394U 24140R   25229.78967101  .00000103  00000+0  14133-3 0  9990
2 60394  88.9835 311.4855 0014919 181.7971 178.3129 13.50962779 51501
